[{"OBJECT_NAME":"CAPELLA-18 (ACADIA-8)","OBJECT_ID":"2026-004Y","EPOCH":"2026-03-09T22:58:47.667360","MEAN_MOTION":14.88674118,"ECCENTRICITY":0.00057329,"INCLINATION":97.8018,"RA_OF_ASC_NODE":69.2213,"ARG_OF_PERICENTER":86.7741,"MEAN_ANOMALY":273.4132,"EPHEMERIS_TYPE":0,"CLASSIFICATION_TYPE":"U","NORAD_CAT_ID":67385,"ELEMENT_SET_NO":999,"REV_AT_EPOCH":853,"BSTAR":0.00078929607,"MEAN_MOTION_DOT":7.317e-5,"MEAN_MOTION_DDOT":0},{"OBJECT_NAME":"CZ-4B DEB","OBJECT_ID":"1999-057DJ","EPOCH":"2026-03-09T22:28:39.013824","MEAN_MOTION":14.77580784,"ECCENTRICITY":0.0067564,"INCLINATION":98.6394,"RA_OF_ASC_NODE":180.2386,"ARG_OF_PERICENTER":250.3278,"MEAN_ANOMALY":227.5736,"EPHEMERIS_TYPE":0,"CLASSIFICATION_TYPE":"U","NORAD_CAT_ID":26220,"ELEMENT_SET_NO":999,"REV_AT_EPOCH":39541,"BSTAR":0.00020630452,"MEAN_MOTION_DOT":1.466e-5,"MEAN_MOTION_DDOT":0}]
